[{"OBJECT_NAME":"JILIN-1 08","OBJECT_ID":"2018-008F","EPOCH":"2026-03-09T22:37:53.184288","MEAN_MOTION":15.32205976,"ECCENTRICITY":0.00081321,"INCLINATION":97.1902,"RA_OF_ASC_NODE":90.9961,"ARG_OF_PERICENTER":76.0646,"MEAN_ANOMALY":284.15,"EPHEMERIS_TYPE":0,"CLASSIFICATION_TYPE":"U","NORAD_CAT_ID":43160,"ELEMENT_SET_NO":999,"REV_AT_EPOCH":44974,"BSTAR":0.00036689195,"MEAN_MOTION_DOT":0.00011349,"MEAN_MOTION_DDOT":0},{"OBJECT_NAME":"STARLINK-35916","OBJECT_ID":"2025-263V","EPOCH":"2026-03-08T19:39:42.958080","MEAN_MOTION":15.27594257,"ECCENTRICITY":6.423e-5,"INCLINATION":42.9965,"RA_OF_ASC_NODE":359.2903,"ARG_OF_PERICENTER":328.5572,"MEAN_ANOMALY":31.5241,"EPHEMERIS_TYPE":0,"CLASSIFICATION_TYPE":"U","NORAD_CAT_ID":66504,"ELEMENT_SET_NO":999,"REV_AT_EPOCH":1872,"BSTAR":0.0011589109,"MEAN_MOTION_DOT":0.0003178,"MEAN_MOTION_DDOT":0}]
